CENTAURI-7              
1 62708U 25009DD  26068.76467094  .00005487  00000+0  48082-3 0  9992
2 62708  97.7123 150.3372 0001973 133.1699 226.9688 14.97068612 62583
STARLINK-34468          
1 64424U 25129N   26068.43202853  .00002578  00000+0  22378-3 0  9994
2 64424  70.0009  75.3087 0003417 270.1847  89.8921 14.98335708 41248
